STARLINK-2085           
1 47369U 21005W   21149.82966277  .00000952  00000-0  82801-4 0  9990
2 47369  53.0550 314.5822 0001562 111.9884 248.1271 15.06394339 20336
STARLINK-2086           
1 47370U 21005X   21150.25002315 -.01078943  00000-0 -22964-1 0  9994
2 47370  53.0530 295.9231 0001195  79.5462 178.7800 15.47316567 20625
STARLINK-2088           
1 47371U 21005Y   21149.77253117 -.00000658  00000-0 -25278-4 0  9999
2 47371  53.0552 334.8637 0001926  96.2412 263.8797 15.06400108 20043
STARLINK-2089           
1 47372U 21005Z   21149.86972909 -.00000727  00000-0 -29924-4 0  9996
2 47372  53.0482 329.4376 0002168 114.6965 245.4249 15.06398955 20126
STARLINK-2092           
1 47373U 21005AA  21149.83520224 -.00000369  00000-0 -58268-5 0  9999
2 47373  53.0546 334.5817 0002058 104.7425 255.3792 15.06398867 20051
STARLINK-2093           
1 47374U 21005AB  21149.84995367  .00000112  00000-0  26428-4 0  9991
2 47374  53.0574 334.5112 0002071 103.8761 256.2459 15.06405149 20051
STARLINK-2094           
1 47375U 21005AC  21149.86100489 -.00000803  00000-0 -34968-4 0  9994
2 47375  53.0557 334.4424 0002024  97.9908 262.1311 15.06400957 20057
STARLINK-2096           
1 47376U 21005AD  21149.79834396 -.00000691  00000-0 -27467-4 0  9999
2 47376  53.0561 334.7294 0001979 104.2838 255.8371 15.06397054 20040
STARLINK-2097           
1 47377U 21005AE  21149.98906942 -.00000708  00000-0 -28627-4 0  9996
2 47377  53.0566 333.8793 0001931 100.8560 259.2647 15.06396745 20075
STARLINK-2098           
1 47378U 21005AF  21149.91667824 -.01079906  00000-0 -22259-1 0  9992
2 47378  53.0513 297.5064 0001268  84.6145 120.7240 15.48232517  1821
STARLINK-2099           
1 47379U 21005AG  21149.91667824 -.01079658  00000-0 -22360-1 0  9990
2 47379  53.0533 297.5230 0001283  89.2752 111.9279 15.48096601  1827
STARLINK-2100           
1 47380U 21005AH  21149.91667824  .00032722  00000-0  22069-2 0  9997
2 47380  53.0522 304.1956 0001174  85.6404 121.5756 15.06375656  1809
STARLINK-2101           
1 47381U 21005AJ  21149.81995374 -.00002489  00000-0 -14821-3 0  9998
2 47381  53.0552 309.6172 0001143  92.7072 267.4047 15.06408391 20402
STARLINK-2102           
1 47382U 21005AK  21149.91667824  .00031041  00000-0  20943-2 0  9991
2 47382  53.0333 304.3334 0001324  75.7061 171.5566 15.06388372  1802
STARLINK-2103           
1 47383U 21005AL  21149.91667824 -.01086824  00000-0 -19209-1 0  9996
2 47383  53.0540 297.3652 0001141  84.0063 204.9362 15.52549750  1826
STARLINK-2104           
1 47384U 21005AM  21149.91667824  .00035788  00000-0  24103-2 0  9997
2 47384  53.0563 304.1990 0001555  75.0736  17.3119 15.06384502  1805
STARLINK-2105           
1 47385U 21005AN  21149.91667824  .00030408  00000-0  20533-2 0  9995
2 47385  53.0561 304.2049 0001329  74.1386 273.1507 15.06368190  1808
STARLINK-2106           
1 47386U 21005AP  21149.74950043  .00002109  00000-0  16058-3 0  9990
2 47386  53.0536 304.9443 0001127 101.6915 258.4200 15.06366614 20464
STARLINK-2108           
1 47387U 21005AQ  21149.80203856  .00001100  00000-0  92721-4 0  9993
2 47387  53.0561 334.7149 0002164 105.9471 254.1757 15.06404486 20047
STARLINK-2109           
1 47388U 21005AR  21149.81677614 -.00000771  00000-0 -32878-4 0  9994
2 47388  53.0498 334.6584 0001631 108.1939 251.9227 15.06415412 20049
STARLINK-2110           
1 47389U 21005AS  21149.86720153  .00001509  00000-0  12527-3 0  9993
2 47389  53.0255 313.9255 0001699 113.0396 247.0771 15.04772792 20340
STARLINK-2111           
1 47390U 21005AT  21149.92365779 -.00000774  00000-0 -33053-4 0  9994
2 47390  53.0559 334.1632 0002183 107.7088 252.4140 15.06399096 20063
STARLINK-2112           
1 47391U 21005AU  21150.25002315  .00034135  00000-0  23011-2 0  9994
2 47391  53.0497 302.7477 0001144  81.2858 199.7841 15.06373186 21143
STARLINK-2113           
1 47392U 21005AV  21150.25002315  .00011728  00000-0  80512-3 0  9998
2 47392  53.0496 302.7544 0001554  91.5444 184.4863 15.06391839 21148
STARLINK-2114           
1 47393U 21005AW  21150.25002315  .00092786  00000-0  10102-2 0  9999
2 47393  53.0528 295.5403 0004339 329.9820 117.5793 15.62680135 20632
STARLINK-2115           
1 47394U 21005AX  21149.91667824 -.01061808  00000-0 -46275-1 0  9996
2 47394  53.0520 299.6131 0001194  90.3132 224.6003 15.24680760  1825
STARLINK-2117           
1 47395U 21005AY  21150.25002315 -.01062981  00000-0 -22553-1 0  9990
2 47395  53.0551 295.9199 0001696 341.9103 279.3319 15.47359462 20626
STARLINK-2118           
1 47396U 21005AZ  21150.25002315  .00031557  00000-0  21290-2 0  9991
2 47396  53.0527 302.6986 0001368  84.6390  71.3721 15.06382410 21144
STARLINK-2119           
1 47397U 21005BA  21149.88679863  .00001509  00000-0  12023-3 0  9996
2 47397  53.0584 334.3328 0001820 112.9553 247.1628 15.06392711 20063
STARLINK-2120           
1 47398U 21005BB  21150.25002315  .00035444  00000-0  23890-2 0  9990
2 47398  53.0571 302.7141 0001145  91.2927 224.6961 15.06360954 21140
STARLINK-2121           
1 47399U 21005BC  21149.80661753  .00002284  00000-0  17217-3 0  9990
2 47399  53.0424 314.7506 0001701 108.1939 251.9235 15.06402385 20326
STARLINK-2122           
1 47400U 21005BD  21149.91667824 -.01079952  00000-0 -22315-1 0  9992
2 47400  53.0533 297.5113 0001285  99.7490 104.6409 15.48162392  1824
STARLINK-2123           
1 47401U 21005BE  21150.25002315  .00032337  00000-0  21814-2 0  9997
2 47401  53.0538 302.6854 0001472  95.6627 140.2444 15.06373247 21155
STARLINK-2124           
1 47402U 21005BF  21150.25002315  .00032097  00000-0  21650-2 0  9999
2 47402  53.0553 302.7007 0001422  84.1980  51.8031 15.06381379 21147
STARLINK-2127           
1 47403U 21005BG  21149.91667824 -.00011689  00000-0 -76696-3 0  9990
2 47403  53.0552 304.1982 0001005  47.5058  39.6894 15.06409268  1801
STARLINK-2128           
1 47404U 21005BH  21150.25002315  .00032781  00000-0  22105-2 0  9997
2 47404  53.0553 302.6997 0001445  76.1254  39.8408 15.06381792 21149
STARLINK-2130           
1 47405U 21005BJ  21149.93745395 -.00000883  00000-0 -40350-4 0  9997
2 47405  53.0550 334.1017 0002110  98.8106 261.3122 15.06403966 20060
STARLINK-2133           
1 47406U 21005BK  21149.84163567 -.00000131  00000-0  10095-4 0  9991
2 47406  53.0555 304.5332 0001243  74.6187 285.4940 15.06400708 20475
STARLINK-2134           
1 47407U 21005BL  21149.91667824  .00031519  00000-0  21264-2 0  9996
2 47407  53.0555 304.2001 0001545  72.7860 294.4404 15.06382816  1763
STARLINK-2135           
1 47408U 21005BM  21150.25002315  .00031366  00000-0  21172-2 0  9992
2 47408  53.0541 302.6994 0001119  83.4672  92.4911 15.06366383 21143
STARLINK-2199           
1 47413U 21006A   21149.72418490 -.00000138  00000-0 -40134-5 0  9991
2 47413  97.4955 211.6971 0003333 193.0989 167.0157 15.14327371 20214
STARLINK-2200           
1 47414U 21006B   21149.72464395 -.00000405  00000-0 -18599-4 0  9993
2 47414  97.4952 211.6920 0003192 192.8539 167.2612 15.14324445 19245
STARLINK-2201           
1 47415U 21006C   21149.80751592 -.00040648  00000-0 -31607-2 0  9997
2 47415  97.4937 211.4304 0001729 207.3059 152.8075 15.01475341 19236
STARLINK-2202           
1 47416U 21006D   21149.85953851 -.00000879  00000-0 -44496-4 0  9999
2 47416  97.4948 211.8158 0003027 191.2412 168.8753 15.14313517 19260
STARLINK-2203           
1 47417U 21006E   21149.72555100 -.00000747  00000-0 -37279-4 0  9996
2 47417  97.4949 211.6903 0003141 191.0905 169.0258 15.14318389 19243
STARLINK-2204           
1 47418U 21006F   21149.80828069 -.00255102  00000-0 -19770-1 0  9993
2 47418  97.4943 211.4326 0001117 225.5814 134.5320 15.02789099 19231
STARLINK-2205           
1 47419U 21006G   21149.72601425 -.00002036  00000-0 -10770-3 0  9999
2 47419  97.4951 211.6894 0003356 191.9921 168.1231 15.14319876 19245
STARLINK-2206           
1 47420U 21006H   21149.72646833 -.00001664  00000-0 -87397-4 0  9999
2 47420  97.4948 211.6895 0003264 191.2606 168.8554 15.14321528 19247
STARLINK-2207           
1 47421U 21006J   21149.72691577 -.00000199  00000-0 -73299-5 0  9994
2 47421  97.4952 211.6899 0003254 193.5875 166.5269 15.14311323 19249
STARLINK-2208           
1 47422U 21006K   21149.72509270 -.00000516  00000-0 -24630-4 0  9990
2 47422  97.4953 211.6952 0003550 190.4032 169.7127 15.14317054 19246
SPACEBEE-52             
1 47425U 21006N   21149.68961830  .00003325  00000-0  18222-3 0  9990
2 47425  97.4919 211.5602 0015419 160.2827 199.9005 15.14789957 20197
SPACEBEE-46             
1 47426U 21006P   21149.89399897  .00003040  00000-0  16760-3 0  9991
2 47426  97.4915 211.7449 0015451 159.7326 200.4523 15.14645132 20221
SPACEBEE-47             
1 47427U 21006Q   21149.89773075  .00003169  00000-0  17482-3 0  9990
2 47427  97.4913 211.7371 0015363 160.4013 199.7813 15.14591846 19264
SPACEBEE-59             
1 47428U 21006R   21149.70367835  .00003086  00000-0  17062-3 0  9996
2 47428  97.4916 211.5388 0015268 161.8264 198.3517 15.14534433 20190
SPACEBEE-62             
1 47429U 21006S   21149.66136295  .00001625  00000-0  92830-4 0  9990
2 47429  97.4902 211.4146 0015156 158.0169 202.1716 15.14035391 19221
ASTROCAST-0101          
1 47430U 21006T   21149.88342318  .00000540  00000-0  34409-4 0  9994
2 47430  97.4902 211.4289 0010737 172.9938 187.1445 15.12818623 18180
SPACEBEE-61             
1 47431U 21006U   21149.63497994  .00002754  00000-0  16362-3 0  9995
2 47431  97.4956 211.0898 0007290 160.1355 200.0161 15.12104625 20154
SPACEBEE-49             
1 47432U 21006V   21149.90564039  .00002926  00000-0  17397-3 0  9991
2 47432  97.4959 211.3468 0007022 159.5636 200.5877 15.12024217 20192
SPACEBEE-60             
1 47433U 21006W   21149.90963021  .00003165  00000-0  18808-3 0  9990
2 47433  97.4961 211.3463 0006751 159.4308 200.7196 15.11991769 20194
SPACEBEE-53             
1 47434U 21006X   21149.70734106  .00003177  00000-0  18827-3 0  9993
2 47434  97.4965 211.1596 0006685 160.2239 199.9252 15.12088632 20169
